EKRAN 20                
1 22210U 92074A   26064.00560145  .00000080  00000+0  00000+0 0  9994
2 22210  13.7487 345.0612 0003586 235.5533 354.3456  1.00272990 46323
GORIZONT 27             
1 22245U 92082A   26063.96781039  .00000098  00000+0  00000+0 0  9991
2 22245  13.7775 344.7478 0012402  19.3091 171.6964  1.00180389126076
COSMOS 2224             
1 22269U 92088A   26064.10947657 -.00000187  00000+0  00000+0 0  9990
2 22269  13.6842 348.7128 0006444 282.2225 270.9972  1.00254045121046
SL-12 R/B(2)            
1 22272U 92088D   26064.08100316 -.00000133  00000+0  00000+0 0  9995
2 22272  13.7858 349.1788 0007190 167.7501  26.4396  1.00076956 46243
TDRS 6                  
1 22314U 93003B   26064.23893036 -.00000300  00000+0  00000+0 0  9991
2 22314  14.1808 357.8287 0005533 200.6180   4.5899  1.00278443121366
RADUGA 29               
1 22557U 93013A   26063.99539591 -.00000185  00000+0  00000+0 0  9997
2 22557  13.8972 345.8912 0003001 192.4879  62.5064  1.00385477120639
HGS-4 (GALAXY 4)        
1 22694U 93039A   26063.87406064 -.00000130  00000+0  00000+0 0  9992
2 22694  14.5742 355.9337 0015809  31.5037 166.4751  1.00265271117952
HISPASAT 1B             
1 22723U 93048A   26064.18374359 -.00000337  00000+0  00000+0 0  9990
2 22723  13.6395  13.8580 0008439 339.1432  19.1824  0.99728790118791
INSAT-2B                
1 22724U 93048B   26062.94940990  .00000098  00000+0  00000+0 0  9996
2 22724  14.4188   3.3880 0016874 232.1552 300.1425  0.99975284119529
UFO 2 (USA 95)          
1 22787U 93056A   26063.96781039  .00000119  00000+0  00000+0 0  9998
2 22787  11.8584   4.1179 0008853 336.4211 199.2322  1.00273157117509
RADUGA 30               
1 22836U 93062A   26063.99539546 -.00000171  00000+0  00000+0 0  9996
2 22836  14.0630 347.9173 0005954 320.2685 293.6733  1.00277309 44954
SL-12 R/B(2)            
1 22839U 93062D   26064.05253336 -.00000073  00000+0  00000+0 0  9998
2 22839  14.0012 347.6476 0008126  84.1205 104.6329  1.00281223117810
SL-12 R/B(2)            
1 22883U 93069D   26063.53655947  .00000045  00000+0  00000+0 0  9998
2 22883  13.9099 347.4716 0003811  33.0284 154.9133  1.00469633118010
GORIZONT 29             
1 22907U 93072A   26063.90720912 -.00000380  00000+0  00000+0 0  9998
2 22907  14.0357 348.1016 0012043 354.7031 267.8985  1.00140514118122
SOLIDARIDAD 1           
1 22911U 93073A   26062.34697563 -.00000112  00000+0  00000+0 0  9999
2 22911  14.3490   3.1820 0009151 268.7386 267.2658  1.00279333116808
TELSTAR 401             
1 22927U 93077A   26063.41503084 -.00000078  00000+0  00000+0 0  9994
2 22927  14.4805 351.6637 0003859 166.2658  41.6941  1.00279717117521
GALS 1                  
1 22963U 94002A   26063.99489450  .00000118  00000+0  00000+0 0  9990
2 22963  14.5413 354.6458 0011448 242.5717 319.4579  1.00300000117666
