[{"OBJECT_NAME":"EKRAN 20","OBJECT_ID":"1992-074A","EPOCH":"2026-03-05T00:08:03.965280","MEAN_MOTION":1.0027299,"ECCENTRICITY":0.00035863,"INCLINATION":13.7487,"RA_OF_ASC_NODE":345.0612,"ARG_OF_PERICENTER":235.5533,"MEAN_ANOMALY":354.3456,"EPHEMERIS_TYPE":0,"CLASSIFICATION_TYPE":"U","NORAD_CAT_ID":22210,"ELEMENT_SET_NO":999,"REV_AT_EPOCH":4632,"BSTAR":0,"MEAN_MOTION_DOT":8.0e-7,"MEAN_MOTION_DDOT":0},{"OBJECT_NAME":"GORIZONT 27","OBJECT_ID":"1992-082A","EPOCH":"2026-03-04T23:13:38.817696","MEAN_MOTION":1.00180389,"ECCENTRICITY":0.00124029,"INCLINATION":13.7775,"RA_OF_ASC_NODE":344.7478,"ARG_OF_PERICENTER":19.3091,"MEAN_ANOMALY":171.6964,"EPHEMERIS_TYPE":0,"CLASSIFICATION_TYPE":"U","NORAD_CAT_ID":22245,"ELEMENT_SET_NO":999,"REV_AT_EPOCH":12607,"BSTAR":0,"MEAN_MOTION_DOT":9.8e-7,"MEAN_MOTION_DDOT":0},{"OBJECT_NAME":"COSMOS 2224","OBJECT_ID":"1992-088A","EPOCH":"2026-03-05T02:37:38.775648","MEAN_MOTION":1.00254045,"ECCENTRICITY":0.0006444,"INCLINATION":13.6842,"RA_OF_ASC_NODE":348.7128,"ARG_OF_PERICENTER":282.2225,"MEAN_ANOMALY":270.9972,"EPHEMERIS_TYPE":0,"CLASSIFICATION_TYPE":"U","NORAD_CAT_ID":22269,"ELEMENT_SET_NO":999,"REV_AT_EPOCH":12104,"BSTAR":0,"MEAN_MOTION_DOT":-1.87e-6,"MEAN_MOTION_DDOT":0},{"OBJECT_NAME":"SL-12 R/B(2)","OBJECT_ID":"1992-088D","EPOCH":"2026-03-05T01:56:38.673024","MEAN_MOTION":1.00076956,"ECCENTRICITY":0.00071903,"INCLINATION":13.7858,"RA_OF_ASC_NODE":349.1788,"ARG_OF_PERICENTER":167.7501,"MEAN_ANOMALY":26.4396,"EPHEMERIS_TYPE":0,"CLASSIFICATION_TYPE":"U","NORAD_CAT_ID":22272,"ELEMENT_SET_NO":999,"REV_AT_EPOCH":4624,"BSTAR":0,"MEAN_MOTION_DOT":-1.33e-6,"MEAN_MOTION_DDOT":0},{"OBJECT_NAME":"TDRS 6","OBJECT_ID":"1993-003B","EPOCH":"2026-03-05T05:44:03.583104","MEAN_MOTION":1.00278443,"ECCENTRICITY":0.0005533,"INCLINATION":14.1808,"RA_OF_ASC_NODE":357.8287,"ARG_OF_PERICENTER":200.618,"MEAN_ANOMALY":4.5899,"EPHEMERIS_TYPE":0,"CLASSIFICATION_TYPE":"U","NORAD_CAT_ID":22314,"ELEMENT_SET_NO":999,"REV_AT_EPOCH":12136,"BSTAR":0,"MEAN_MOTION_DOT":-3.0e-6,"MEAN_MOTION_DDOT":0},{"OBJECT_NAME":"RADUGA 29","OBJECT_ID":"1993-013A","EPOCH":"2026-03-04T23:53:22.206624","MEAN_MOTION":1.00385477,"ECCENTRICITY":0.00030014,"INCLINATION":13.8972,"RA_OF_ASC_NODE":345.8912,"ARG_OF_PERICENTER":192.4879,"MEAN_ANOMALY":62.5064,"EPHEMERIS_TYPE":0,"CLASSIFICATION_TYPE":"U","NORAD_CAT_ID":22557,"ELEMENT_SET_NO":999,"REV_AT_EPOCH":12063,"BSTAR":0,"MEAN_MOTION_DOT":-1.85e-6,"MEAN_MOTION_DDOT":0},{"OBJECT_NAME":"HGS-4 (GALAXY 4)","OBJECT_ID":"1993-039A","EPOCH":"2026-03-04T20:58:38.839296","MEAN_MOTION":1.00265271,"ECCENTRICITY":0.00158095,"INCLINATION":14.5742,"RA_OF_ASC_NODE":355.9337,"ARG_OF_PERICENTER":31.5037,"MEAN_ANOMALY":166.4751,"EPHEMERIS_TYPE":0,"CLASSIFICATION_TYPE":"U","NORAD_CAT_ID":22694,"ELEMENT_SET_NO":999,"REV_AT_EPOCH":11795,"BSTAR":0,"MEAN_MOTION_DOT":-1.3e-6,"MEAN_MOTION_DDOT":0},{"OBJECT_NAME":"HISPASAT 1B","OBJECT_ID":"1993-048A","EPOCH":"2026-03-05T04:24:35.446176","MEAN_MOTION":0.9972879,"ECCENTRICITY":0.00084398,"INCLINATION":13.6395,"RA_OF_ASC_NODE":13.858,"ARG_OF_PERICENTER":339.1432,"MEAN_ANOMALY":19.1824,"EPHEMERIS_TYPE":0,"CLASSIFICATION_TYPE":"U","NORAD_CAT_ID":22723,"ELEMENT_SET_NO":999,"REV_AT_EPOCH":11879,"BSTAR":0,"MEAN_MOTION_DOT":-3.37e-6,"MEAN_MOTION_DDOT":0},{"OBJECT_NAME":"INSAT-2B","OBJECT_ID":"1993-048B","EPOCH":"2026-03-03T22:47:09.015360","MEAN_MOTION":0.99975284,"ECCENTRICITY":0.0016874,"INCLINATION":14.4188,"RA_OF_ASC_NODE":3.388,"ARG_OF_PERICENTER":232.1552,"MEAN_ANOMALY":300.1425,"EPHEMERIS_TYPE":0,"CLASSIFICATION_TYPE":"U","NORAD_CAT_ID":22724,"ELEMENT_SET_NO":999,"REV_AT_EPOCH":11952,"BSTAR":0,"MEAN_MOTION_DOT":9.8e-7,"MEAN_MOTION_DDOT":0},{"OBJECT_NAME":"UFO 2 (USA 95)","OBJECT_ID":"1993-056A","EPOCH":"2026-03-04T23:13:38.817696","MEAN_MOTION":1.00273157,"ECCENTRICITY":0.00088537,"INCLINATION":11.8584,"RA_OF_ASC_NODE":4.1179,"ARG_OF_PERICENTER":336.4211,"MEAN_ANOMALY":199.2322,"EPHEMERIS_TYPE":0,"CLASSIFICATION_TYPE":"U","NORAD_CAT_ID":22787,"ELEMENT_SET_NO":999,"REV_AT_EPOCH":11750,"BSTAR":0,"MEAN_MOTION_DOT":1.19e-6,"MEAN_MOTION_DDOT":0},{"OBJECT_NAME":"RADUGA 30","OBJECT_ID":"1993-062A","EPOCH":"2026-03-04T23:53:22.167744","MEAN_MOTION":1.00277309,"ECCENTRICITY":0.00059544,"INCLINATION":14.063,"RA_OF_ASC_NODE":347.9173,"ARG_OF_PERICENTER":320.2685,"MEAN_ANOMALY":293.6733,"EPHEMERIS_TYPE":0,"CLASSIFICATION_TYPE":"U","NORAD_CAT_ID":22836,"ELEMENT_SET_NO":999,"REV_AT_EPOCH":4495,"BSTAR":0,"MEAN_MOTION_DOT":-1.71e-6,"MEAN_MOTION_DDOT":0},{"OBJECT_NAME":"SL-12 R/B(2)","OBJECT_ID":"1993-062D","EPOCH":"2026-03-05T01:15:38.882304","MEAN_MOTION":1.00281223,"ECCENTRICITY":0.00081261,"INCLINATION":14.0012,"RA_OF_ASC_NODE":347.6476,"ARG_OF_PERICENTER":84.1205,"MEAN_ANOMALY":104.6329,"EPHEMERIS_TYPE":0,"CLASSIFICATION_TYPE":"U","NORAD_CAT_ID":22839,"ELEMENT_SET_NO":999,"REV_AT_EPOCH":11781,"BSTAR":0,"MEAN_MOTION_DOT":-7.3e-7,"MEAN_MOTION_DDOT":0},{"OBJECT_NAME":"SL-12 R/B(2)","OBJECT_ID":"1993-069D","EPOCH":"2026-03-04T12:52:38.738208","MEAN_MOTION":1.00469633,"ECCENTRICITY":0.0003811,"INCLINATION":13.9099,"RA_OF_ASC_NODE":347.4716,"ARG_OF_PERICENTER":33.0284,"MEAN_ANOMALY":154.9133,"EPHEMERIS_TYPE":0,"CLASSIFICATION_TYPE":"U","NORAD_CAT_ID":22883,"ELEMENT_SET_NO":999,"REV_AT_EPOCH":11801,"BSTAR":0,"MEAN_MOTION_DOT":4.5e-7,"MEAN_MOTION_DDOT":0},{"OBJECT_NAME":"GORIZONT 29","OBJECT_ID":"1993-072A","EPOCH":"2026-03-04T21:46:22.867968","MEAN_MOTION":1.00140514,"ECCENTRICITY":0.00120439,"INCLINATION":14.0357,"RA_OF_ASC_NODE":348.1016,"ARG_OF_PERICENTER":354.7031,"MEAN_ANOMALY":267.8985,"EPHEMERIS_TYPE":0,"CLASSIFICATION_TYPE":"U","NORAD_CAT_ID":22907,"ELEMENT_SET_NO":999,"REV_AT_EPOCH":11812,"BSTAR":0,"MEAN_MOTION_DOT":-3.8e-6,"MEAN_MOTION_DDOT":0},{"OBJECT_NAME":"SOLIDARIDAD 1","OBJECT_ID":"1993-073A","EPOCH":"2026-03-03T08:19:38.694432","MEAN_MOTION":1.00279333,"ECCENTRICITY":0.00091511,"INCLINATION":14.349,"RA_OF_ASC_NODE":3.182,"ARG_OF_PERICENTER":268.7386,"MEAN_ANOMALY":267.2658,"EPHEMERIS_TYPE":0,"CLASSIFICATION_TYPE":"U","NORAD_CAT_ID":22911,"ELEMENT_SET_NO":999,"REV_AT_EPOCH":11680,"BSTAR":0,"MEAN_MOTION_DOT":-1.12e-6,"MEAN_MOTION_DDOT":0},{"OBJECT_NAME":"TELSTAR 401","OBJECT_ID":"1993-077A","EPOCH":"2026-03-04T09:57:38.664576","MEAN_MOTION":1.00279717,"ECCENTRICITY":0.0003859,"INCLINATION":14.4805,"RA_OF_ASC_NODE":351.6637,"ARG_OF_PERICENTER":166.2658,"MEAN_ANOMALY":41.6941,"EPHEMERIS_TYPE":0,"CLASSIFICATION_TYPE":"U","NORAD_CAT_ID":22927,"ELEMENT_SET_NO":999,"REV_AT_EPOCH":11752,"BSTAR":0,"MEAN_MOTION_DOT":-7.8e-7,"MEAN_MOTION_DDOT":0},{"OBJECT_NAME":"GALS 1","OBJECT_ID":"1994-002A","EPOCH":"2026-03-04T23:52:38.884800","MEAN_MOTION":1.003,"ECCENTRICITY":0.00114489,"INCLINATION":14.5413,"RA_OF_ASC_NODE":354.6458,"ARG_OF_PERICENTER":242.5717,"MEAN_ANOMALY":319.4579,"EPHEMERIS_TYPE":0,"CLASSIFICATION_TYPE":"U","NORAD_CAT_ID":22963,"ELEMENT_SET_NO":999,"REV_AT_EPOCH":11766,"BSTAR":0,"MEAN_MOTION_DOT":1.18e-6,"MEAN_MOTION_DDOT":0}]
